COSMOS 2242             
1 22626U 93024A   26072.51389915  .00002255  00000+0  19556-3 0  9996
2 22626  82.5154 263.0577 0014972 294.8741  65.0924 14.96566146780967
SL-16 R/B               
1 22803U 93059B   26072.21771043 -.00000014  00000+0  16615-4 0  9991
2 22803  70.9929   3.6866 0018323 211.3262 148.6772 14.17231398680037
ARIANE 40 R/B           
1 22830U 93061H   26072.19009650  .00000226  00000+0  98525-4 0  9993
2 22830  98.4908 141.0085 0009558 273.5166  86.4925 14.32863031694601
COSMOS 2278             
1 23087U 94023A   26072.27533716 -.00000032  00000+0  77144-5 0  9992
2 23087  71.0551 167.5967 0008316   6.5779 353.5451 14.14379565645314
SL-16 R/B               
1 23088U 94023B   26072.39088571 -.00000195  00000+0 -76014-4 0  9995
2 23088  70.9984  63.1131 0005682 282.2288  77.8198 14.15010623646614
SL-16 R/B               
1 23343U 94074B   26072.36869571  .00000546  00000+0  79804-4 0  9997
2 23343  97.7105 103.0376 0006061 197.0977 173.9206 14.79412615687794
SL-16 R/B               
1 23405U 94077B   26072.15908370  .00000156  00000+0  10423-3 0  9995
2 23405  70.9853 345.1910 0002896 207.5729 152.5240 14.15561966616723
ARIANE 40+ R/B          
1 23561U 95021B   26072.22322764  .00000332  00000+0  11968-3 0  9994
2 23561  98.4491 143.6579 0007774 127.1111 299.8824 14.39775320619759
SL-16 R/B               
1 23705U 95058B   26072.30758162  .00000302  00000+0  17856-3 0  9997
2 23705  71.0225 172.6602 0010622 119.1343 241.0845 14.15497856568365
SL-16 R/B               
1 24298U 96051B   26072.28213470  .00000084  00000+0  72096-4 0  9999
2 24298  70.7603 167.6354 0014772 142.5483 217.6669 14.12416729522159
ORBVIEW 2 (SEASTAR)     
1 24883U 97037A   26072.39090443  .00000350  00000+0  13790-3 0  9990
2 24883  98.8573 236.8009 0002996  64.3295 295.8199 14.35497990509008
SL-16 R/B               
1 25400U 98043G   26072.30992726  .00000083  00000+0  53558-4 0  9990
2 25400  98.8258  25.6990 0010036  10.3984 349.7401 14.26050761439500
