CCSDS_OMM_VERS = 2.0
CREATION_DATE  = 
ORIGINATOR     = 

OBJECT_NAME    = COSMOS 2242
OBJECT_ID      = 1993-024A
CENTER_NAME    = EARTH
REF_FRAME      = TEME
TIME_SYSTEM    = UTC
MEAN_ELEMENT_THEORY = SGP/SGP4

EPOCH          = 2026-03-13T12:20:00.886560
MEAN_MOTION    = 14.96566146
ECCENTRICITY   = .00149726
INCLINATION    = 82.5154
RA_OF_ASC_NODE = 263.0577
ARG_OF_PERICENTER = 294.8741
MEAN_ANOMALY   = 65.0924

EPHEMERIS_TYPE = 0
CLASSIFICATION_TYPE = U
NORAD_CAT_ID   = 22626
ELEMENT_SET_NO = 999
REV_AT_EPOCH   = 78096
BSTAR          = .19556392E-3
MEAN_MOTION_DOT = .2255E-4
MEAN_MOTION_DDOT = 0

CCSDS_OMM_VERS = 2.0
CREATION_DATE  = 
ORIGINATOR     = 

OBJECT_NAME    = SL-16 R/B
OBJECT_ID      = 1993-059B
CENTER_NAME    = EARTH
REF_FRAME      = TEME
TIME_SYSTEM    = UTC
MEAN_ELEMENT_THEORY = SGP/SGP4

EPOCH          = 2026-03-13T05:13:30.181152
MEAN_MOTION    = 14.17231398
ECCENTRICITY   = .00183233
INCLINATION    = 70.9929
RA_OF_ASC_NODE = 3.6866
ARG_OF_PERICENTER = 211.3262
MEAN_ANOMALY   = 148.6772

EPHEMERIS_TYPE = 0
CLASSIFICATION_TYPE = U
NORAD_CAT_ID   = 22803
ELEMENT_SET_NO = 999
REV_AT_EPOCH   = 68003
BSTAR          = .16615008E-4
MEAN_MOTION_DOT = -.14E-6
MEAN_MOTION_DDOT = 0

CCSDS_OMM_VERS = 2.0
CREATION_DATE  = 
ORIGINATOR     = 

OBJECT_NAME    = ARIANE 40 R/B
OBJECT_ID      = 1993-061H
CENTER_NAME    = EARTH
REF_FRAME      = TEME
TIME_SYSTEM    = UTC
MEAN_ELEMENT_THEORY = SGP/SGP4

EPOCH          = 2026-03-13T04:33:44.337600
MEAN_MOTION    = 14.32863031
ECCENTRICITY   = .00095581
INCLINATION    = 98.4908
RA_OF_ASC_NODE = 141.0085
ARG_OF_PERICENTER = 273.5166
MEAN_ANOMALY   = 86.4925

EPHEMERIS_TYPE = 0
CLASSIFICATION_TYPE = U
NORAD_CAT_ID   = 22830
ELEMENT_SET_NO = 999
REV_AT_EPOCH   = 69460
BSTAR          = .9852496E-4
MEAN_MOTION_DOT = .226E-5
MEAN_MOTION_DDOT = 0

CCSDS_OMM_VERS = 2.0
CREATION_DATE  = 
ORIGINATOR     = 

OBJECT_NAME    = COSMOS 2278
OBJECT_ID      = 1994-023A
CENTER_NAME    = EARTH
REF_FRAME      = TEME
TIME_SYSTEM    = UTC
MEAN_ELEMENT_THEORY = SGP/SGP4

EPOCH          = 2026-03-13T06:36:29.130624
MEAN_MOTION    = 14.14379565
ECCENTRICITY   = .00083165
INCLINATION    = 71.0551
RA_OF_ASC_NODE = 167.5967
ARG_OF_PERICENTER = 6.5779
MEAN_ANOMALY   = 353.5451

EPHEMERIS_TYPE = 0
CLASSIFICATION_TYPE = U
NORAD_CAT_ID   = 23087
ELEMENT_SET_NO = 999
REV_AT_EPOCH   = 64531
BSTAR          = .7714367E-5
MEAN_MOTION_DOT = -.32E-6
MEAN_MOTION_DDOT = 0

CCSDS_OMM_VERS = 2.0
CREATION_DATE  = 
ORIGINATOR     = 

OBJECT_NAME    = SL-16 R/B
OBJECT_ID      = 1994-023B
CENTER_NAME    = EARTH
REF_FRAME      = TEME
TIME_SYSTEM    = UTC
MEAN_ELEMENT_THEORY = SGP/SGP4

EPOCH          = 2026-03-13T09:22:52.525344
MEAN_MOTION    = 14.15010623
ECCENTRICITY   = .00056823
INCLINATION    = 70.9984
RA_OF_ASC_NODE = 63.1131
ARG_OF_PERICENTER = 282.2288
MEAN_ANOMALY   = 77.8198

EPHEMERIS_TYPE = 0
CLASSIFICATION_TYPE = U
NORAD_CAT_ID   = 23088
ELEMENT_SET_NO = 999
REV_AT_EPOCH   = 64661
BSTAR          = -.76014189E-4
MEAN_MOTION_DOT = -.195E-5
MEAN_MOTION_DDOT = 0

CCSDS_OMM_VERS = 2.0
CREATION_DATE  = 
ORIGINATOR     = 

OBJECT_NAME    = SL-16 R/B
OBJECT_ID      = 1994-074B
CENTER_NAME    = EARTH
REF_FRAME      = TEME
TIME_SYSTEM    = UTC
MEAN_ELEMENT_THEORY = SGP/SGP4

EPOCH          = 2026-03-13T08:50:55.309344
MEAN_MOTION    = 14.79412615
ECCENTRICITY   = .00060617
INCLINATION    = 97.7105
RA_OF_ASC_NODE = 103.0376
ARG_OF_PERICENTER = 197.0977
MEAN_ANOMALY   = 173.9206

EPHEMERIS_TYPE = 0
CLASSIFICATION_TYPE = U
NORAD_CAT_ID   = 23343
ELEMENT_SET_NO = 999
REV_AT_EPOCH   = 68779
BSTAR          = .798036E-4
MEAN_MOTION_DOT = .546E-5
MEAN_MOTION_DDOT = 0

CCSDS_OMM_VERS = 2.0
CREATION_DATE  = 
ORIGINATOR     = 

OBJECT_NAME    = SL-16 R/B
OBJECT_ID      = 1994-077B
CENTER_NAME    = EARTH
REF_FRAME      = TEME
TIME_SYSTEM    = UTC
MEAN_ELEMENT_THEORY = SGP/SGP4

EPOCH          = 2026-03-13T03:49:04.831680
MEAN_MOTION    = 14.15561966
ECCENTRICITY   = .00028964
INCLINATION    = 70.9853
RA_OF_ASC_NODE = 345.1910
ARG_OF_PERICENTER = 207.5729
MEAN_ANOMALY   = 152.5240

EPHEMERIS_TYPE = 0
CLASSIFICATION_TYPE = U
NORAD_CAT_ID   = 23405
ELEMENT_SET_NO = 999
REV_AT_EPOCH   = 61672
BSTAR          = .10423256E-3
MEAN_MOTION_DOT = .156E-5
MEAN_MOTION_DDOT = 0

CCSDS_OMM_VERS = 2.0
CREATION_DATE  = 
ORIGINATOR     = 

OBJECT_NAME    = ARIANE 40+ R/B
OBJECT_ID      = 1995-021B
CENTER_NAME    = EARTH
REF_FRAME      = TEME
TIME_SYSTEM    = UTC
MEAN_ELEMENT_THEORY = SGP/SGP4

EPOCH          = 2026-03-13T05:21:26.868096
MEAN_MOTION    = 14.39775320
ECCENTRICITY   = .00077748
INCLINATION    = 98.4491
RA_OF_ASC_NODE = 143.6579
ARG_OF_PERICENTER = 127.1111
MEAN_ANOMALY   = 299.8824

EPHEMERIS_TYPE = 0
CLASSIFICATION_TYPE = U
NORAD_CAT_ID   = 23561
ELEMENT_SET_NO = 999
REV_AT_EPOCH   = 61975
BSTAR          = .11968263E-3
MEAN_MOTION_DOT = .332E-5
MEAN_MOTION_DDOT = 0

CCSDS_OMM_VERS = 2.0
CREATION_DATE  = 
ORIGINATOR     = 

OBJECT_NAME    = SL-16 R/B
OBJECT_ID      = 1995-058B
CENTER_NAME    = EARTH
REF_FRAME      = TEME
TIME_SYSTEM    = UTC
MEAN_ELEMENT_THEORY = SGP/SGP4

EPOCH          = 2026-03-13T07:22:55.051968
MEAN_MOTION    = 14.15497856
ECCENTRICITY   = .00106223
INCLINATION    = 71.0225
RA_OF_ASC_NODE = 172.6602
ARG_OF_PERICENTER = 119.1343
MEAN_ANOMALY   = 241.0845

EPHEMERIS_TYPE = 0
CLASSIFICATION_TYPE = U
NORAD_CAT_ID   = 23705
ELEMENT_SET_NO = 999
REV_AT_EPOCH   = 56836
BSTAR          = .17855578E-3
MEAN_MOTION_DOT = .302E-5
MEAN_MOTION_DDOT = 0

CCSDS_OMM_VERS = 2.0
CREATION_DATE  = 
ORIGINATOR     = 

OBJECT_NAME    = SL-16 R/B
OBJECT_ID      = 1996-051B
CENTER_NAME    = EARTH
REF_FRAME      = TEME
TIME_SYSTEM    = UTC
MEAN_ELEMENT_THEORY = SGP/SGP4

EPOCH          = 2026-03-13T06:46:16.438080
MEAN_MOTION    = 14.12416729
ECCENTRICITY   = .00147724
INCLINATION    = 70.7603
RA_OF_ASC_NODE = 167.6354
ARG_OF_PERICENTER = 142.5483
MEAN_ANOMALY   = 217.6669

EPHEMERIS_TYPE = 0
CLASSIFICATION_TYPE = U
NORAD_CAT_ID   = 24298
ELEMENT_SET_NO = 999
REV_AT_EPOCH   = 52215
BSTAR          = .72095822E-4
MEAN_MOTION_DOT = .84E-6
MEAN_MOTION_DDOT = 0

CCSDS_OMM_VERS = 2.0
CREATION_DATE  = 
ORIGINATOR     = 

OBJECT_NAME    = ORBVIEW 2 (SEASTAR)
OBJECT_ID      = 1997-037A
CENTER_NAME    = EARTH
REF_FRAME      = TEME
TIME_SYSTEM    = UTC
MEAN_ELEMENT_THEORY = SGP/SGP4

EPOCH          = 2026-03-13T09:22:54.142752
MEAN_MOTION    = 14.35497990
ECCENTRICITY   = .00029962
INCLINATION    = 98.8573
RA_OF_ASC_NODE = 236.8009
ARG_OF_PERICENTER = 64.3295
MEAN_ANOMALY   = 295.8199

EPHEMERIS_TYPE = 0
CLASSIFICATION_TYPE = U
NORAD_CAT_ID   = 24883
ELEMENT_SET_NO = 999
REV_AT_EPOCH   = 50900
BSTAR          = .13790467E-3
MEAN_MOTION_DOT = .35E-5
MEAN_MOTION_DDOT = 0

CCSDS_OMM_VERS = 2.0
CREATION_DATE  = 
ORIGINATOR     = 

OBJECT_NAME    = SL-16 R/B
OBJECT_ID      = 1998-043G
CENTER_NAME    = EARTH
REF_FRAME      = TEME
TIME_SYSTEM    = UTC
MEAN_ELEMENT_THEORY = SGP/SGP4

EPOCH          = 2026-03-13T07:26:17.715264
MEAN_MOTION    = 14.26050761
ECCENTRICITY   = .00100368
INCLINATION    = 98.8258
RA_OF_ASC_NODE = 25.6990
ARG_OF_PERICENTER = 10.3984
MEAN_ANOMALY   = 349.7401

EPHEMERIS_TYPE = 0
CLASSIFICATION_TYPE = U
NORAD_CAT_ID   = 25400
ELEMENT_SET_NO = 999
REV_AT_EPOCH   = 43950
BSTAR          = .53558091E-4
MEAN_MOTION_DOT = .83E-6
MEAN_MOTION_DDOT = 0

